HELIOS 1B               
1 25977U 99064A   20263.37649231 -.00000004  00000-0  66237-5 0  9990
2 25977  98.2931  61.5987 0002309  66.9813 293.1642 14.82494461389030
TERRA                   
1 25994U 99068A   20263.52235218 -.00000845  00000-0 -17760-3 0  9995
2 25994  98.2066 336.4701 0001501 100.1336 260.0022 14.57109596104012
SL-16 R/B               
1 26070U 00006B   20263.51034710  .00000007  00000-0  27883-4 0  9994
2 26070  71.0046 335.6056 0017640 334.0002  26.0233 14.15470480 65947
MTI                     
1 26102U 00014A   20263.63506393  .00003843  00000-0  55780-4 0  9991
2 26102  97.4879 150.4781 0005763 234.1028 125.9685 15.56491471139163
TITAN 4B R/B            
1 26474U 00047B   20263.12306659  .00000057  00000-0  15839-4 0  9991
2 26474  67.9942 177.8551 0051008  94.9376 265.7592 14.95987377 93332
ENVISAT                 
1 27386U 02009A   20263.57746409  .00000003  00000-0  14291-4 0  9996
2 27386  98.1390 265.6849 0001254  86.0947  22.0159 14.37992272972074
IDEFIX & ARIANE 42P R/B 
1 27422U 02021B   20263.47213234 -.00000019  00000-0  89725-5 0  9998
2 27422  98.3609 220.6900 0011479 318.2246  41.8059 14.29293967956707
AQUA                    
1 27424U 02022A   20263.57503189  .00000089  00000-0  29775-4 0  9997
2 27424  98.1961 202.8461 0002744  66.5825 107.1447 14.57114413977577
CZ-4B R/B               
1 27432U 02024C   20263.52353698 -.00000042  00000-0  25420-5 0  9995
2 27432  99.0910 267.3234 0049440 271.1134 197.3844 14.14096970946944
MIDORI II (ADEOS-II)    
1 27597U 02056A   20263.32369868  .00000015  00000-0  23621-4 0  9995
2 27597  98.5270 208.5825 0002143  79.3720 280.7702 14.27459737925204
H-2A R/B                
1 27601U 02056E   20263.51966900  .00000048  00000-0  32222-4 0  9995
2 27601  98.2195 294.4197 0072049 358.5006 124.8960 14.31968558928152
CZ-4B R/B               
1 28059U 03049C   20263.48489773  .00000025  00000-0  17727-4 0  9998
2 28059  98.4817 181.0613 0049400 210.0151 149.8211 14.52610014896485
CZ-2C R/B               
1 28222U 04012C   20263.13663366  .00000464  00000-0  31537-4 0  9997
2 28222  97.6873 225.9824 0048599  70.2310  57.8978 15.10463093900137
SL-16 R/B               
1 28353U 04021B   20262.99592969 -.00000269  00000-0 -11591-3 0  9997
2 28353  70.9982 103.1411 0006021 217.1408 142.9299 14.14238956840361
CZ-4B R/B               
1 28415U 04035C   20263.13159360  .00000512  00000-0  37560-4 0  9996
2 28415  97.6052 303.6389 0052331  34.5681 325.8931 15.06906291877747
CZ-2C R/B               
1 28480U 04046B   20263.53764788 -.00000035  00000-0  22675-5 0  9993
2 28480  98.0723 291.1611 0140858 306.8173 166.6883 14.25728188823825
ARIANE 5 R/B            
1 28499U 04049H   20263.54033611  .00000012  00000-0  90491-5 0  9996
2 28499  98.0593   5.6347 0091428 329.9628  39.7929 14.80045087850016
CZ-2D R/B               
1 28738U 05024B   20263.55012114  .00000220  00000-0  16380-4 0  9997
2 28738  97.3794 282.9875 0010967 211.7786 148.2784 15.12099887835623
SUZAKU (ASTRO-EII)      
1 28773U 05025A   20263.07490313  .00000918  00000-0  40144-4 0  9994
2 28773  31.3815 127.8533 0004225  68.7116 291.3982 15.17681651838195
ALOS (DAICHI)           
1 28931U 06002A   20263.54304947  .00000058  00000-0  20012-4 0  9992
2 28931  97.8520 244.7022 0001603 107.1601 252.9767 14.62739181781458
H-2A R/B                
1 28932U 06002B   20263.53444418  .00000169  00000-0  21838-4 0  9990
2 28932  98.3282 258.8953 0089027  14.6774  95.4556 14.92284557795173
AKARI (ASTRO-F)         
1 28939U 06005A   20263.54680059  .00002795  00000-0  75266-4 0  9995
2 28939  98.2408 248.5354 0092196 355.9073   4.1403 15.34711018795323
RESURS-DK 1             
1 29228U 06021A   20263.54791296  .00000022  00000-0  90460-5 0  9996
2 29228  69.9353 308.4590 0007248 298.7205  61.3227 15.02567256786880
GENESIS 1               
1 29252U 06029A   20263.54114204 -.00000023  00000-0  88136-5 0  9998
2 29252  64.5222 353.8329 0009252  25.5219 334.6359 15.18208942782389
CZ-4B R/B               
1 29507U 06046C   20263.50987945 -.00000731  00000-0 -51476-4 0  9999
2 29507  97.7367 285.1367 0048854 205.1237 154.7609 15.00581802759479
CZ-2C R/B               
1 31114U 07010B   20263.55827107 -.00000073  00000-0 -15250-4 0  9995
2 31114  98.2519 110.0700 0059680 354.0248   6.0211 14.19330381696351
COSMO-SKYMED 1          
1 31598U 07023A   20263.58748639 -.00000308  00000-0 -32173-4 0  9994
2 31598  97.8869  85.3802 0001496  87.5419 272.5980 14.82149439718773
GENESIS 2               
1 31789U 07028A   20263.35116300  .00000274  00000-0  23901-4 0  9999
2 31789  64.5054  36.2266 0034625 234.1967 125.5936 15.17348452729415
COSMOS 2428             
1 31792U 07029A   20262.91597904 -.00000334  00000-0 -15538-3 0  9993
2 31792  70.9009  76.6599 0010721 291.2541  68.7434 14.12281304682066
SL-16 R/B               
1 31793U 07029B   20263.54686716 -.00000108  00000-0 -31411-4 0  9992
2 31793  70.9755  48.7027 0001901 257.6495 168.2222 14.14429541682986
KORONAS-FOTON           
1 33504U 09003A   20263.11622682  .00000594  00000-0  29406-4 0  9991
2 33504  82.4412 129.6379 0018062 318.9968  40.9905 15.15700376641672
H-2A R/B                
1 38341U 12025E   20263.16706939  .00000138  00000-0  23900-4 0  9993
2 38341  98.5119  64.3137 0054352 291.3465  68.1952 14.84070430451346
CUSAT 2 & FALCON 9 R/B  
1 39271U 13055G   20263.47790756  .00001997  00000-0  48012-4 0  9999
2 39271  80.9686 165.8109 0583347 247.2614 106.5943 14.49043128364341
SL-4 R/B                
1 39679U 14021B   20263.51419889 -.00000019  00000-0  17251-4 0  9991
2 39679  51.6182  30.8855 0171060 271.7448  86.3937 15.06483792353200
ALOS-2                  
1 39766U 14029A   20263.52080390  .00000106  00000-0  21123-4 0  9997
2 39766  97.9227 358.7729 0001577  83.8102 276.3297 14.79472244341606
CZ-2C R/B               
1 40306U 14071B   20263.46920384  .00002021  00000-0  43916-4 0  9997
2 40306  97.3323 210.8703 0015340 176.0297 184.1077 15.45469374328366
SL-27 R/B               
1 40354U 14084B   20263.51259307  .00000682  00000-0  17810-4 0  9995
2 40354  74.7386 193.4852 0037996 332.7992  27.1228 15.40361335322611
YAOGAN 29               
1 41038U 15069A   20263.52107214 -.00000006  00000-0  60897-5 0  9994
2 41038  98.0174 251.3705 0001046  43.2905 316.8383 14.80459287260192
ASTRO-H (HITOMI)        
1 41337U 16012A   20263.10818212  .00000207  00000-0  98150-5 0  9991
2 41337  31.0052 135.9378 0012521 276.5292  83.3917 14.98708318251560
SHENZHOU-11 MODULE      
1 41868U 16061G   20263.43852274  .00203129  29666-4  14777-3 0  9998
2 41868  42.7813 261.5766 0011999 127.8870 355.1517 16.14802077221164
HXMT (HUIYAN)           
1 42758U 17034A   20263.47376985  .00000151  00000-0  23129-4 0  9991
2 42758  43.0182 240.1885 0011488 263.6729 241.8952 15.08890547180075
CZ-2C R/B               
1 43521U 18054D   20263.49887140  .00000455  00000-0  26558-4 0  9991
2 43521  35.1546 320.3496 0083124 227.5641 131.8020 15.11074646123380
AEOLUS                  
1 43600U 18066A   20263.51151808  .00020576  00000-0  82098-4 0  9997
2 43600  96.7212 268.4961 0005640  98.6245 261.5667 15.86601414120289
SAOCOM 1A               
1 43641U 18076A   20263.52822363 -.00000612  00000-0 -70361-4 0  9996
2 43641  97.8896  88.3027 0001434  76.0419 284.0878 14.82149872105531
CREW DRAGON DEMO-1 DEB  
1 44064U 19011B   20263.53142764  .00012150  00000-0  11619-3 0  9995
2 44064  51.6337 195.0416 0003934  67.4457 292.6955 15.67165082 87658
